{
  "type": "Feature",
  "properties": {
    "name": "Cyprus island",
    "source": "Natural Earth 1:10m land"
  },
  "geometry": {
    "type": "Polygon",
    "coordinates": [
      [
        [
          34.5442,
          35.678371
        ],
        [
          34.578461,
          35.689765
        ],
        [
          34.59254,
          35.691962
        ],
        [
          34.587087,
          35.688707
        ],
        [
          34.583669,
          35.684963
        ],
        [
          34.581309,
          35.68122
        ],
        [
          34.578868,
          35.678371
        ],
        [
          34.57545,
          35.650133
        ],
        [
          34.572765,
          35.643541
        ],
        [
          34.56544,
          35.641181
        ],
        [
          34.542328,
          35.637274
        ],
        [
          34.537283,
          35.633979
        ],
        [
          34.441417,
          35.583645
        ],
        [
          34.352306,
          35.520697
        ],
        [
          34.137706,
          35.415107
        ],
        [
          34.10906,
          35.394273
        ],
        [
          34.08546,
          35.369859
        ],
        [
          34.068207,
          35.337714
        ],
        [
          34.05893,
          35.324123
        ],
        [
          34.043793,
          35.315253
        ],
        [
          34.019786,
          35.314358
        ],
        [
          33.994884,
          35.319281
        ],
        [
          33.971365,
          35.321275
        ],
        [
          33.951671,
          35.31151
        ],
        [
          33.923595,
          35.278551
        ],
        [
          33.91212,
          35.259996
        ],
        [
          33.9074,
          35.242906
        ],
        [
          33.899913,
          35.164455
        ],
        [
          33.913748,
          35.156236
        ],
        [
          33.953624,
          35.122626
        ],
        [
          33.961925,
          35.112616
        ],
        [
          33.966807,
          35.100084
        ],
        [
          33.978689,
          35.08747
        ],
        [
          34.012299,
          35.063788
        ],
        [
          34.021983,
          35.056993
        ],
        [
          34.035899,
          35.047187
        ],
        [
          34.051036,
          35.033026
        ],
        [
          34.062185,
          35.005683
        ],
        [
          34.073416,
          34.988105
        ],
        [
          34.087087,
          34.97191
        ],
        [
          34.099132,
          34.965155
        ],
        [
          34.085216,
          34.964342
        ],
        [
          34.059418,
          34.96662
        ],
        [
          34.034516,
          34.97248
        ],
        [
          34.023448,
          34.982571
        ],
        [
          34.011567,
          34.987616
        ],
        [
          33.957286,
          34.98192
        ],
        [
          33.910167,
          34.97016
        ],
        [
          33.899913,
          34.965155
        ],
        [
          33.891856,
          34.958157
        ],
        [
          33.8838,
          34.949123
        ],
        [
          33.874522,
          34.94123
        ],
        [
          33.862315,
          34.937893
        ],
        [
          33.847423,
          34.94245
        ],
        [
          33.819672,
          34.964748
        ],
        [
          33.80421,
          34.972602
        ],
        [
          33.78183,
          34.976223
        ],
        [
          33.780935,
          34.976345
        ],
        [
          33.760427,
          34.979682
        ],
        [
          33.717296,
          34.977769
        ],
        [
          33.701508,
          34.972886
        ],
        [
          33.680349,
          34.966295
        ],
        [
          33.654063,
          34.944729
        ],
        [
          33.646658,
          34.931952
        ],
        [
          33.639822,
          34.915676
        ],
        [
          33.634776,
          34.89765
        ],
        [
          33.632986,
          34.879828
        ],
        [
          33.63502,
          34.860745
        ],
        [
          33.632579,
          34.852484
        ],
        [
          33.623057,
          34.849066
        ],
        [
          33.616954,
          34.845282
        ],
        [
          33.610037,
          34.82746
        ],
        [
          33.605642,
          34.821763
        ],
        [
          33.59018,
          34.818061
        ],
        [
          33.556977,
          34.817776
        ],
        [
          33.5442,
          34.815009
        ],
        [
          33.535492,
          34.807522
        ],
        [
          33.525157,
          34.795966
        ],
        [
          33.513194,
          34.785468
        ],
        [
          33.499522,
          34.780829
        ],
        [
          33.467621,
          34.774319
        ],
        [
          33.43865,
          34.762763
        ],
        [
          33.415212,
          34.75845
        ],
        [
          33.400157,
          34.773383
        ],
        [
          33.399181,
          34.745307
        ],
        [
          33.37086,
          34.730862
        ],
        [
          33.29656,
          34.718166
        ],
        [
          33.281586,
          34.712348
        ],
        [
          33.272553,
          34.707343
        ],
        [
          33.260102,
          34.700507
        ],
        [
          33.245616,
          34.698228
        ],
        [
          33.173595,
          34.705146
        ],
        [
          33.101899,
          34.698228
        ],
        [
          33.086436,
          34.69481
        ],
        [
          33.072276,
          34.686754
        ],
        [
          33.02589,
          34.651313
        ],
        [
          33.015636,
          34.634426
        ],
        [
          33.009939,
          34.624905
        ],
        [
          33.009125,
          34.597398
        ],
        [
          33.030284,
          34.574774
        ],
        [
          33.030284,
          34.568549
        ],
        [
          32.940929,
          34.568549
        ],
        [
          32.940929,
          34.574774
        ],
        [
          32.944672,
          34.593695
        ],
        [
          32.915863,
          34.63939
        ],
        [
          32.913585,
          34.656684
        ],
        [
          32.857432,
          34.669013
        ],
        [
          32.834321,
          34.670966
        ],
        [
          32.812836,
          34.668647
        ],
        [
          32.760671,
          34.653225
        ],
        [
          32.749197,
          34.649848
        ],
        [
          32.707367,
          34.645413
        ],
        [
          32.665782,
          34.652167
        ],
        [
          32.626231,
          34.66649
        ],
        [
          32.575043,
          34.692816
        ],
        [
          32.556651,
          34.699368
        ],
        [
          32.535818,
          34.703559
        ],
        [
          32.493337,
          34.707261
        ],
        [
          32.475841,
          34.713202
        ],
        [
          32.458995,
          34.721869
        ],
        [
          32.419119,
          34.747992
        ],
        [
          32.413341,
          34.753485
        ],
        [
          32.407074,
          34.782416
        ],
        [
          32.403005,
          34.787055
        ],
        [
          32.402354,
          34.796454
        ],
        [
          32.379161,
          34.849066
        ],
        [
          32.367931,
          34.857001
        ],
        [
          32.34669,
          34.868598
        ],
        [
          32.337657,
          34.87641
        ],
        [
          32.329438,
          34.88642
        ],
        [
          32.323416,
          34.898424
        ],
        [
          32.322765,
          34.911363
        ],
        [
          32.331391,
          34.924221
        ],
        [
          32.312185,
          34.950263
        ],
        [
          32.310313,
          34.960761
        ],
        [
          32.310313,
          34.982571
        ],
        [
          32.305919,
          35.00141
        ],
        [
          32.28419,
          35.032375
        ],
        [
          32.276134,
          35.047756
        ],
        [
          32.271739,
          35.072821
        ],
        [
          32.275157,
          35.091051
        ],
        [
          32.286632,
          35.097154
        ],
        [
          32.306895,
          35.085598
        ],
        [
          32.336681,
          35.058743
        ],
        [
          32.353363,
          35.047919
        ],
        [
          32.372325,
          35.04149
        ],
        [
          32.413829,
          35.043036
        ],
        [
          32.449962,
          35.058824
        ],
        [
          32.479666,
          35.082953
        ],
        [
          32.501964,
          35.109198
        ],
        [
          32.516856,
          35.140204
        ],
        [
          32.527599,
          35.15705
        ],
        [
          32.543468,
          35.16649
        ],
        [
          32.545421,
          35.17121
        ],
        [
          32.548188,
          35.175971
        ],
        [
          32.553966,
          35.178046
        ],
        [
          32.55893,
          35.176907
        ],
        [
          32.566498,
          35.172716
        ],
        [
          32.568207,
          35.17178
        ],
        [
          32.574718,
          35.1706
        ],
        [
          32.584809,
          35.172512
        ],
        [
          32.601899,
          35.178616
        ],
        [
          32.619395,
          35.184882
        ],
        [
          32.640717,
          35.187079
        ],
        [
          32.650401,
          35.188056
        ],
        [
          32.659841,
          35.187079
        ],
        [
          32.69158,
          35.183702
        ],
        [
          32.711436,
          35.181627
        ],
        [
          32.745372,
          35.178046
        ],
        [
          32.776378,
          35.170844
        ],
        [
          32.801443,
          35.157131
        ],
        [
          32.82838,
          35.148586
        ],
        [
          32.865245,
          35.156968
        ],
        [
          32.892589,
          35.175035
        ],
        [
          32.914724,
          35.200832
        ],
        [
          32.929373,
          35.232978
        ],
        [
          32.934744,
          35.270575
        ],
        [
          32.936046,
          35.336615
        ],
        [
          32.93214,
          35.366278
        ],
        [
          32.920421,
          35.397773
        ],
        [
          32.944347,
          35.394517
        ],
        [
          32.985362,
          35.374579
        ],
        [
          33.006114,
          35.369859
        ],
        [
          33.069796,
          35.358724
        ],
        [
          33.14008,
          35.362159
        ],
        [
          33.262462,
          35.349351
        ],
        [
          33.28061,
          35.342475
        ],
        [
          33.427501,
          35.328925
        ],
        [
          33.66033,
          35.35932
        ],
        [
          33.742849,
          35.397773
        ],
        [
          33.783508,
          35.416718
        ],
        [
          33.834646,
          35.40998
        ],
        [
          33.887938,
          35.423906
        ],
        [
          34.035622,
          35.471383
        ],
        [
          34.07629,
          35.494323
        ],
        [
          34.13119,
          35.511347
        ],
        [
          34.181651,
          35.554185
        ],
        [
          34.210385,
          35.559146
        ],
        [
          34.26779,
          35.572256
        ],
        [
          34.319672,
          35.586168
        ],
        [
          34.36148,
          35.608309
        ],
        [
          34.5442,
          35.678371
        ]
      ]
    ]
  }
}
